{"type": "FeatureCollection", "features": [ {"type": "Feature", "properties": {"norad_id": 66835, "name": "STARLINK-35890", "group": "last-30-days", "lat": 21.792189199640184, "lon": -152.08708584094276, "alt_km": 327.1800747675561, "timestamp": "2025-12-12T11:38:30.171373+00:00", "meta": {"OBJECT_NAME": "STARLINK-35890", "OBJECT_ID": "2025-280Q", "EPOCH": "2025-12-12T04:00:01.998720", "MEAN_MOTION": 15.82441546, "ECCENTRICITY": 0.0004091, "INCLINATION": 69.9918, "RA_OF_ASC_NODE": 200.4464, "ARG_OF_PERICENTER": 275.4652, "MEAN_ANOMALY": 95.4057, "EPHEMERIS_TYPE": 0, "CLASSIFICATION_TYPE": "U", "NORAD_CAT_ID": 66835, "ELEMENT_SET_NO": 999, "REV_AT_EPOCH": 280, "BSTAR": -0.0098228, "MEAN_MOTION_DOT": -0.01766424, "MEAN_MOTION_DDOT": 0}, "tle": {"line1": "1 66835U 25280Q   25346.16668980 -.01766424  00000+0 -98228-2 0  9991", "line2": "2 66835  69.9918 200.4464 0004091 275.4652  95.4057 15.82441546  2807"}}, "geometry": {"type": "Point", "coordinates": [-152.08708584094276, 21.792189199640184]}}, {"type": "Feature", "properties": {"norad_id": 66836, "name": "STARLINK-35838", "group": "last-30-days", "lat": 23.686332764646806, "lon": -151.26842985778086, "alt_km": 326.89888374847396, "timestamp": "2025-12-12T11:38:30.171385+00:00", "meta": {"OBJECT_NAME": "STARLINK-35838", "OBJECT_ID": "2025-280R", "EPOCH": "2025-12-12T04:00:01.998720", "MEAN_MOTION": 15.82452807, "ECCENTRICITY": 0.0004044, "INCLINATION": 69.9915, "RA_OF_ASC_NODE": 200.4437, "ARG_OF_PERICENTER": 276.224, "MEAN_ANOMALY": 96.6757, "EPHEMERIS_TYPE": 0, "CLASSIFICATION_TYPE": "U", "NORAD_CAT_ID": 66836, "ELEMENT_SET_NO": 999, "REV_AT_EPOCH": 280, "BSTAR": -0.0098581, "MEAN_MOTION_DOT": -0.01772612, "MEAN_MOTION_DDOT": 0}, "tle": {"line1": "1 66836U 25280R   25346.16668980 -.01772612  00000+0 -98581-2 0  9990", "line2": "2 66836  69.9915 200.4437 0004044 276.2240  96.6757 15.82452807  2807"}}, "geometry": {"type": "Point", "coordinates": [-151.26842985778086, 23.686332764646806]}}, {"type": "Feature", "properties": {"norad_id": 66837, "name": "STARLINK-35729", "group": "last-30-days", "lat": 25.540069995231633, "lon": -150.44190097449345, "alt_km": 326.562995122541, "timestamp": "2025-12-12T11:38:30.171395+00:00", "meta": {"OBJECT_NAME": "STARLINK-35729", "OBJECT_ID": "2025-280S", "EPOCH": "2025-12-12T04:00:01.998720", "MEAN_MOTION": 15.82473049, "ECCENTRICITY": 0.0003852, "INCLINATION": 69.9915, "RA_OF_ASC_NODE": 200.4412, "ARG_OF_PERICENTER": 277.3257, "MEAN_ANOMALY": 97.5593, "EPHEMERIS_TYPE": 0, "CLASSIFICATION_TYPE": "U", "NORAD_CAT_ID": 66837, "ELEMENT_SET_NO": 999, "REV_AT_EPOCH": 280, "BSTAR": -0.0099473, "MEAN_MOTION_DOT": -0.01826494, "MEAN_MOTION_DDOT": 0}, "tle": {"line1": "1 66837U 25280S   25346.16668980 -.01826494  00000+0 -99473-2 0  9990", "line2": "2 66837  69.9915 200.4412 0003852 277.3257  97.5593 15.82473049  2806"}}, "geometry": {"type": "Point", "coordinates": [-150.44190097449345, 25.540069995231633]}}, {"type": "Feature", "properties": {"norad_id": 66838, "name": "STARLINK-35886", "group": "last-30-days", "lat": 29.078040523055414, "lon": -148.78265732820074, "alt_km": 326.05227964635105, "timestamp": "2025-12-12T11:38:30.171405+00:00", "meta": {"OBJECT_NAME": "STARLINK-35886", "OBJECT_ID": "2025-280T", "EPOCH": "2025-12-12T04:00:01.998720", "MEAN_MOTION": 15.82506307, "ECCENTRICITY": 0.0003844, "INCLINATION": 69.9913, "RA_OF_ASC_NODE": 200.4366, "ARG_OF_PERICENTER": 277.1244, "MEAN_ANOMALY": 101.5536, "EPHEMERIS_TYPE": 0, "CLASSIFICATION_TYPE": "U", "NORAD_CAT_ID": 66838, "ELEMENT_SET_NO": 999, "REV_AT_EPOCH": 280, "BSTAR": -0.0099317, "MEAN_MOTION_DOT": -0.01826484, "MEAN_MOTION_DDOT": 0}, "tle": {"line1": "1 66838U 25280T   25346.16668980 -.01826484  00000+0 -99317-2 0  9997", "line2": "2 66838  69.9913 200.4366 0003844 277.1244 101.5536 15.82506307  2805"}}, "geometry": {"type": "Point", "coordinates": [-148.78265732820074, 29.078040523055414]}}, {"type": "Feature", "properties": {"norad_id": 66839, "name": "STARLINK-35717", "group": "last-30-days", "lat": 27.24327704459872, "lon": -149.65750657071845, "alt_km": 326.45597368144263, "timestamp": "2025-12-12T11:38:30.171415+00:00", "meta": {"OBJECT_NAME": "STARLINK-35717", "OBJECT_ID": "2025-280U", "EPOCH": "2025-12-12T04:00:01.998720", "MEAN_MOTION": 15.82492509, "ECCENTRICITY": 0.0003961, "INCLINATION": 69.9914, "RA_OF_ASC_NODE": 200.439, "ARG_OF_PERICENTER": 274.3332, "MEAN_ANOMALY": 102.369, "EPHEMERIS_TYPE": 0, "CLASSIFICATION_TYPE": "U", "NORAD_CAT_ID": 66839, "ELEMENT_SET_NO": 999, "REV_AT_EPOCH": 280, "BSTAR": -0.0099119, "MEAN_MOTION_DOT": -0.01822369, "MEAN_MOTION_DDOT": 0}, "tle": {"line1": "1 66839U 25280U   25346.16668980 -.01822369  00000+0 -99119-2 0  9996", "line2": "2 66839  69.9914 200.4390 0003961 274.3332 102.3690 15.82492509  2809"}}, "geometry": {"type": "Point", "coordinates": [-149.65750657071845, 27.24327704459872]}}, {"type": "Feature", "properties": {"norad_id": 66840, "name": "STARLINK-35837", "group": "last-30-days", "lat": 30.867900281265367, "lon": -147.89576566539236, "alt_km": 325.8314833580698, "timestamp": "2025-12-12T11:38:30.171425+00:00", "meta": {"OBJECT_NAME": "STARLINK-35837", "OBJECT_ID": "2025-280V", "EPOCH": "2025-12-12T04:00:01.998720", "MEAN_MOTION": 15.82523773, "ECCENTRICITY": 0.000387, "INCLINATION": 69.9916, "RA_OF_ASC_NODE": 200.4345, "ARG_OF_PERICENTER": 276.557, "MEAN_ANOMALY": 104.0503, "EPHEMERIS_TYPE": 0, "CLASSIFICATION_TYPE": "U", "NORAD_CAT_ID": 66840, "ELEMENT_SET_NO": 999, "REV_AT_EPOCH": 280, "BSTAR": -0.0099594, "MEAN_MOTION_DOT": -0.01832313, "MEAN_MOTION_DDOT": 0}, "tle": {"line1": "1 66840U 25280V   25346.16668980 -.01832313  00000+0 -99594-2 0  9995", "line2": "2 66840  69.9916 200.4345 0003870 276.5570 104.0503 15.82523773  2800"}}, "geometry": {"type": "Point", "coordinates": [-147.89576566539236, 30.867900281265367]}}, {"type": "Feature", "properties": {"norad_id": 66841, "name": "STARLINK-35715", "group": "last-30-days", "lat": 32.69723507530056, "lon": -146.95104380589837, "alt_km": 325.6615574509224, "timestamp": "2025-12-12T11:38:30.171437+00:00", "meta": {"OBJECT_NAME": "STARLINK-35715", "OBJECT_ID": "2025-280W", "EPOCH": "2025-12-12T04:00:01.998720", "MEAN_MOTION": 15.82537176, "ECCENTRICITY": 0.0003947, "INCLINATION": 69.9914, "RA_OF_ASC_NODE": 200.4319, "ARG_OF_PERICENTER": 275.3088, "MEAN_ANOMALY": 107.282, "EPHEMERIS_TYPE": 0, "CLASSIFICATION_TYPE": "U", "NORAD_CAT_ID": 66841, "ELEMENT_SET_NO": 999, "REV_AT_EPOCH": 280, "BSTAR": -0.009984, "MEAN_MOTION_DOT": -0.01837408, "MEAN_MOTION_DDOT": 0}, "tle": {"line1": "1 66841U 25280W   25346.16668980 -.01837408  00000+0 -99840-2 0  9990", "line2": "2 66841  69.9914 200.4319 0003947 275.3088 107.2820 15.82537176  2805"}}, "geometry": {"type": "Point", "coordinates": [-146.95104380589837, 32.69723507530056]}}, {"type": "Feature", "properties": {"norad_id": 66842, "name": "STARLINK-35769", "group": "last-30-days", "lat": 34.39120341728258, "lon": -146.03710173620587, "alt_km": 325.42303798594, "timestamp": "2025-12-12T11:38:30.171447+00:00", "meta": {"OBJECT_NAME": "STARLINK-35769", "OBJECT_ID": "2025-280X", "EPOCH": "2025-12-12T04:00:01.998720", "MEAN_MOTION": 15.82563163, "ECCENTRICITY": 0.0004061, "INCLINATION": 69.9915, "RA_OF_ASC_NODE": 200.43, "ARG_OF_PERICENTER": 275.6945, "MEAN_ANOMALY": 108.7242, "EPHEMERIS_TYPE": 0, "CLASSIFICATION_TYPE": "U", "NORAD_CAT_ID": 66842, "ELEMENT_SET_NO": 999, "REV_AT_EPOCH": 280, "BSTAR": -0.010008, "MEAN_MOTION_DOT": -0.01843359, "MEAN_MOTION_DDOT": 0}, "tle": {"line1": "1 66842U 25280X   25346.16668980 -.01843359  00000+0 -10008-1 0  9991", "line2": "2 66842  69.9915 200.4300 0004061 275.6945 108.7242 15.82563163  2809"}}, "geometry": {"type": "Point", "coordinates": [-146.03710173620587, 34.39120341728258]}}, {"type": "Feature", "properties": {"norad_id": 66843, "name": "STARLINK-35997", "group": "last-30-days", "lat": 37.94043765640385, "lon": -143.98079877638693, "alt_km": 324.77950019237323, "timestamp": "2025-12-12T11:38:30.171457+00:00", "meta": {"OBJECT_NAME": "STARLINK-35997", "OBJECT_ID": "2025-280Y", "EPOCH": "2025-12-12T04:00:01.998720", "MEAN_MOTION": 15.8259544, "ECCENTRICITY": 0.0003931, "INCLINATION": 69.991, "RA_OF_ASC_NODE": 200.425, "ARG_OF_PERICENTER": 278.1521, "MEAN_ANOMALY": 110.1492, "EPHEMERIS_TYPE": 0, "CLASSIFICATION_TYPE": "U", "NORAD_CAT_ID": 66843, "ELEMENT_SET_NO": 999, "REV_AT_EPOCH": 280, "BSTAR": -0.01004, "MEAN_MOTION_DOT": -0.01850938, "MEAN_MOTION_DDOT": 0}, "tle": {"line1": "1 66843U 25280Y   25346.16668980 -.01850938  00000+0 -10040-1 0  9999", "line2": "2 66843  69.9910 200.4250 0003931 278.1521 110.1492 15.82595440  2809"}}, "geometry": {"type": "Point", "coordinates": [-143.98079877638693, 37.94043765640385]}}, {"type": "Feature", "properties": {"norad_id": 66844, "name": "STARLINK-36073", "group": "last-30-days", "lat": 36.29724179695427, "lon": -144.95883536209124, "alt_km": 325.0187402178826, "timestamp": "2025-12-12T11:38:30.171469+00:00", "meta": {"OBJECT_NAME": "STARLINK-36073", "OBJECT_ID": "2025-280Z", "EPOCH": "2025-12-12T04:00:01.998720", "MEAN_MOTION": 15.8257225, "ECCENTRICITY": 0.0003952, "INCLINATION": 69.9912, "RA_OF_ASC_NODE": 200.4271, "ARG_OF_PERICENTER": 278.8382, "MEAN_ANOMALY": 107.6715, "EPHEMERIS_TYPE": 0, "CLASSIFICATION_TYPE": "U", "NORAD_CAT_ID": 66844, "ELEMENT_SET_NO": 999, "REV_AT_EPOCH": 280, "BSTAR": -0.010052, "MEAN_MOTION_DOT": -0.01851119, "MEAN_MOTION_DDOT": 0}, "tle": {"line1": "1 66844U 25280Z   25346.16668980 -.01851119  00000+0 -10052-1 0  9995", "line2": "2 66844  69.9912 200.4271 0003952 278.8382 107.6715 15.82572250  2803"}}, "geometry": {"type": "Point", "coordinates": [-144.95883536209124, 36.29724179695427]}}]}